JCSAT-18 (KACIFIC 1)    
1 44868U 19091A   24131.69910439 -.00000204  00000+0  00000+0 0  9997
2 44868   0.0081 315.7517 0000455 303.2295  11.6567  1.00270239 16397
ELEKTRO-L 3             
1 44903U 19095A   24131.91646630 -.00000100  00000+0  00000+0 0  9990
2 44903   0.0631  64.5697 0000961 342.0637 228.5120  1.00272254 15997
SHIJIAN-20 (SJ-20)      
1 44910U 19097A   24131.92757625 -.00000024  00000+0  00000+0 0  9993
2 44910   2.9469  84.3086 0005081 358.2324 188.6248  1.00272084 16008
TJS-5                   
1 44978U 20002A   24131.88058153 -.00000345  00000+0  00000+0 0  9996
2 44978   0.4938  85.1395 0003417 192.6745  15.8264  1.00267223 16004
GSAT-30                 
1 45026U 20005A   24129.81466687 -.00000166  00000+0  00000+0 0  9990
2 45026   0.0090  92.0672 0003101 344.7628 166.5689  1.00272339 15793
EUTELSAT KONNECT        
1 45027U 20005B   24130.10257750  .00000048  00000+0  00000+0 0  9992
2 45027   0.0640  90.8777 0000338 143.1904  37.4709  1.00272341 16618
JCSAT-17                
1 45245U 20013A   24131.68660372 -.00000324  00000+0  00000+0 0  9993
2 45245   5.6127 349.6520 0002627  52.9444 209.5414  1.00272022 15532
GEO-KOMPSAT-2B          
1 45246U 20013B   24130.61842728 -.00000346  00000+0  00000+0 0  9997
2 45246   0.0179 298.1041 0001118  10.6907 269.9995  1.00269769 15576
BEIDOU-3 G2             
1 45344U 20017A   24131.91646569 -.00000145  00000+0  00000+0 0  9996
2 45344   2.2730  28.1708 0000466   0.8763 250.0954  1.00272305 15575
AEHF-6 (USA 298)        
1 45465U 20022B   24130.48914132 -.00000304  00000+0  00000+0 0  9998
2 45465   4.3164 298.6976 0044426   8.6655 234.1309  1.00265733 15309
BEIDOU-3 G3             
1 45807U 20040A   24131.78746953 -.00000357  00000+0  00000+0 0  9994
2 45807   0.7195  37.2277 0005528 290.1712 295.6254  1.00277301 14377
APSTAR-6D               
1 45863U 20045A   24130.62196441 -.00000320  00000+0  00000+0 0  9994
2 45863   0.0723  88.9184 0002462 352.5118 144.3932  1.00272075 14158
KOREASAT 116            
1 45920U 20048A   24131.70466150 -.00000365  00000+0  00000+0 0  9997
2 45920   0.0179 307.8564 0000771  86.6798 204.3375  1.00271412 13940
EXPRESS 103             
1 45985U 20053A   24131.64844060 -.00000284  00000+0  00000+0 0  9997
2 45985   0.0167 285.3241 0000300  14.7171 258.8353  1.00271814 13952
EXPRESS 80              
1 45986U 20053B   24130.14591833 -.00000138  00000+0  00000+0 0  9997
2 45986   0.0217 286.6404 0001831 275.5122 157.8412  1.00271963 13923
BSAT-4B                 
1 46112U 20056A   24131.45618734 -.00000353  00000+0  00000+0 0  9996
2 46112   0.0938 106.9081 0003137 352.3388  43.5589  1.00271254 13692
MEV-2                   
1 46113U 20056B   24128.93591024 -.00000012  00000+0  00000+0 0  9990
2 46113   0.0118 315.0829 0000679  85.2853 161.8129  1.00271241 72902
GALAXY 30 (G-30)        
1 46114U 20056C   24131.62785145  .00000034  00000+0  00000+0 0  9993
2 46114   0.0170 286.7866 0001923 121.6685 281.4824  1.00271749 13704
GAOFEN-13 01            
1 46610U 20071A   24131.88834012 -.00000366  00000+0  00000+0 0  9996
2 46610   0.5235  87.3343 0013506 273.1777 306.1434  1.00269104 13201
TIANTONG-1 2            
1 46916U 20082A   24131.71021889 -.00000360  00000+0  00000+0 0  9993
2 46916   2.4394 293.4495 0000055 313.2990   2.8217  1.00268277 12953
LUCAS (JDRS-1)          
1 47202U 20089A   24131.72688274 -.00000238  00000+0  00000+0 0  9991
2 47202   0.0162 283.9928 0003033 106.5489 190.8754  1.00267602 12729
SXM-7                   
1 47240U 20096A   24132.23591588 -.00000208  00000+0  00000+0 0  9996
2 47240   0.0071  30.3795 0002089 118.3361  80.3750  1.00269960 12645
CMS-01                  
1 47256U 20099A   24131.91646630 -.00000168  00000+0  00000+0 0  9994
2 47256   0.0649  93.5990 0005423 193.6756 354.8450  1.00270723 12500
TURKSAT 5A              
1 47306U 21001A   24131.89007575  .00000151  00000+0  00000+0 0  9991
2 47306   0.0132  34.3260 0000386 118.9871  67.2008  1.00273446 12292
TIANTONG-1 3            
1 47321U 21003A   24131.96261557 -.00000159  00000+0  00000+0 0  9999
2 47321   2.9496 311.8642 0002438  86.8713 258.5316  1.00269902 12275
TJS-6                   
1 47613U 21010A   24131.70674317  .00000039  00000+0  00000+0 0  9991
2 47613   0.2844  86.1363 0001494  34.0207 181.6947  1.00271160 12111
SBIRS GEO-5 (USA 315)   
1 48618U 21042A   24131.84285622  .00000109  00000+0  00000+0 0  9992
2 48618   6.2060 325.6327 0001421  40.5572 187.2617  1.00272510 11037
FENGYUN 4B              
1 48808U 21047A   24131.71577306 -.00000332  00000+0  00000+0 0  9996
2 48808   0.1150 291.7404 0005415 192.6316 106.8780  1.00267696 10881
SXM-8                   
1 48838U 21049A   24130.42300472 -.00000206  00000+0  00000+0 0  9996
2 48838   0.0235  18.5791 0002765  10.1849 266.0272  1.00271246 10893
TIANLIAN 1-05           
1 49011U 21063A   24131.81299378  .00000105  00000+0  00000+0 0  9999
2 49011   0.3979 281.9672 0001831 129.3679 127.2223  1.00271883 10381
STAR ONE D2             
1 49055U 21069A   24129.36690287 -.00000266  00000+0  00000+0 0  9993
2 49055   0.0181 156.7034 0001334 261.9786 230.0966  1.00270303 10183
EUTELSAT QUANTUM        
1 49056U 21069B   24129.77187078  .00000125  00000+0  00000+0 0  9991
2 49056   0.0172 307.8416 0001792  84.3407 160.4837  1.00272255 10217
CHINASAT 2E (ZX 2E)     
1 49062U 21071A   24131.86760330 -.00000295  00000+0  00000+0 0  9991
2 49062   0.0232  34.2319 0002021  96.5256 148.7699  1.00273253 10345
TJS-7                   
1 49115U 21077A   24131.34631521 -.00000127  00000+0  00000+0 0  9992
2 49115   0.2150  83.7092 0000526 330.6370 199.5266  1.00271298  1878
CHINASAT 9B             
1 49125U 21080A   24131.71577306 -.00000315  00000+0  00000+0 0  9997
2 49125   0.0061 322.9134 0001289  88.7010 176.4233  1.00268139  9957
SHIJIAN-21 (SJ-21)      
1 49330U 21094A   24131.86104068 -.00000334  00000+0  00000+0 0  9998
2 49330   9.7441  45.5317 0080023  31.6916 234.1489  1.00330559  9567
SES-17                  
1 49332U 21095A   24131.31832837 -.00000274  00000+0  00000+0 0  9996
2 49332   0.0159 329.8591 0000853  66.4382 239.8047  1.00269241 10144
SYRACUSE 4A             
1 49333U 21095B   24128.77689972  .00000134  00000+0  00000+0 0  9997
2 49333   0.0186 309.1453 0001526  86.3858 155.7721  1.00273190 10233
QZS-1R                  
1 49336U 21096A   24131.78000660 -.00000258  00000+0  00000+0 0  9995
2 49336  35.8705  91.0919 0753781 270.8110 283.1646  1.00272137  9309
CHINASAT 1D (ZX 1D)     
1 49505U 21114A   24131.77609066 -.00000340  00000+0  00000+0 0  9990
2 49505   0.0276 261.0226 0001573 293.6572  83.9350  1.00271427  9134
STPSAT-6                
1 49817U 21118A   24131.44060222 -.00000048  00000+0  00000+0 0  9994
2 49817   0.0475  90.9211 0000780 274.9776 269.7939  1.00272083  8866
LDPE-1                  
1 49818U 21118B   24131.83104965 -.00000224  00000+0  00000+0 0  9997
2 49818   2.1384  88.1486 0000743  45.3139 319.8137  1.00002098  8947
EXPRESS AMU-7           
1 50001U 21123A   24130.96313841 -.00000245  00000+0  00000+0 0  9990
2 50001   0.0209 281.8230 0000230  32.7104  45.4650  1.00272546  8846
EXPRESS AMU-3           
1 50002U 21123B   24131.07952388 -.00000324  00000+0  00000+0 0  9997
2 50002   0.0230 282.6216 0000297 109.6863 327.6939  1.00272750  8823
TIANLIAN 2-02           
1 50005U 21124A   24131.69979852 -.00000018  00000+0  00000+0 0  9994
2 50005   0.7673 274.4215 0001865  96.0282 281.3865  1.00271429  8925
TURKSAT 5B              
1 50212U 21126A   24129.90510774  .00000144  00000+0  00000+0 0  9990
2 50212   0.0686 350.4460 0004364 359.2308 245.3903  1.00271922  8582
INMARSAT 6-F1           
1 50319U 21128A   24129.81466687 -.00000173  00000+0  00000+0 0  9996
2 50319   0.0133 294.8088 0000178 318.4059 350.9309  1.00270357  8543
SHIYAN 12 01 (SY-12 01) 
1 50321U 21129A   24131.86760367 -.00000326  00000+0  00000+0 0  9990
2 50321   1.6895  91.5148 0000528  69.1254 119.4970  1.00472788  8806
SHIYAN 12 02 (SY-12 02) 
1 50322U 21129B   24131.71073766 -.00000195  00000+0  00000+0 0  9999
2 50322   1.6879  91.5222 0001600 208.1781 339.8893  1.00108782  8806
TJS-9                   
1 50574U 21135A   24131.70466174 -.00000302  00000+0  00000+0 0  9993
2 50574   0.0388 293.4224 0005232  97.3752 229.0742  1.00271522  8748
USA 325                 
1 51281U 22006B   24127.85367294 -.00000160  00000+0  00000+0 0  9993
2 51281   0.2249  83.3121 0009496 339.5200 197.5585  1.00043701  8390
GOES 18                 
1 51850U 22021A   24131.40150708  .00000094  00000+0  00000+0 0  9993
2 51850   0.0095  51.5440 0000525 279.3247 265.3476  1.00272256  8073
CHINASAT 6D (ZX 6D)     
1 52255U 22038A   24131.01835242 -.00000356  00000+0  00000+0 0  9993
2 52255   0.0214 274.2018 0001120  60.4634  25.3296  1.00271727  7729
NILESAT 301             
1 52817U 22061A   24131.89406729 -.00000061  00000+0  00000+0 0  9996
2 52817   0.0624  38.5813 0005403 350.2742 155.1569  1.00271633  7046
CMS-02 (GSAT 24)        
1 52903U 22067A   24131.84216059 -.00000168  00000+0  00000+0 0  9996
2 52903   0.0250 264.7872 0007649 181.0829 169.4308  1.00270974  6916
MEASAT 3D               
1 52904U 22067B   24131.80257660 -.00000245  00000+0  00000+0 0  9992
2 52904   0.0323   8.7522 0001838 354.2287 246.5277  1.00271791  6945
SES-22                  
1 52933U 22071A   24131.63868750  .00000085  00000+0  00000+0 0  9999
2 52933   0.0481  94.8516 0000898 299.0074 290.0002  1.00270004  6841
WFOV (USA 332)          
1 52940U 22073A   24131.70466150 -.00000365  00000+0  00000+0 0  9997
2 52940   1.7303  88.6456 0001301 238.7213 274.5664  1.00268292  6677
TIANLIAN 2-03           
1 53100U 22078A   24131.11124525  .00000069  00000+0  00000+0 0  9993
2 53100   1.3245 278.9284 0002605 131.8087 228.2528  1.00273400  6852
